[{"OBJECT_NAME":"STARLINK-5882","OBJECT_ID":"2023-037Y","EPOCH":"2026-03-09T22:23:02.042592","MEAN_MOTION":14.98335627,"ECCENTRICITY":0.00024936,"INCLINATION":69.9989,"RA_OF_ASC_NODE":263.6765,"ARG_OF_PERICENTER":273.774,"MEAN_ANOMALY":86.3134,"EPHEMERIS_TYPE":0,"CLASSIFICATION_TYPE":"U","NORAD_CAT_ID":55936,"ELEMENT_SET_NO":999,"REV_AT_EPOCH":16451,"BSTAR":-5.538674e-6,"MEAN_MOTION_DOT":-1.59e-6,"MEAN_MOTION_DDOT":0},{"OBJECT_NAME":"COSMOS 886 DEB","OBJECT_ID":"1976-126AU","EPOCH":"2026-03-09T14:38:52.099872","MEAN_MOTION":13.0403614,"ECCENTRICITY":0.0887804,"INCLINATION":65.7048,"RA_OF_ASC_NODE":353.5736,"ARG_OF_PERICENTER":82.996,"MEAN_ANOMALY":287.1083,"EPHEMERIS_TYPE":0,"CLASSIFICATION_TYPE":"U","NORAD_CAT_ID":9954,"ELEMENT_SET_NO":999,"REV_AT_EPOCH":61410,"BSTAR":0.00044012,"MEAN_MOTION_DOT":9.3e-6,"MEAN_MOTION_DDOT":0}]
